{
  "updated": "2026-07-17T02:08:34.326Z",
  "capsules": {
    "66664": {
      "name": "SOYUZ-MS 28",
      "kind": "crew",
      "family": "soyuz",
      "phase": "docked",
      "stationKey": "iss",
      "since": "2026-07-03T10:34:14.509Z",
      "distanceKm": 0,
      "altitudeKm": 427.2,
      "inclinationDeg": 51.631,
      "l1": "1 66664U 25275A   26197.34703595  .00003465  00000+0  70975-4 0  9999",
      "l2": "2 66664  51.6312 155.7848 0006753 302.1556  57.8777 15.49022210575429"
    },
    "67796": {
      "name": "CREW DRAGON 12",
      "kind": "crew",
      "family": "dragon",
      "phase": "docked",
      "stationKey": "iss",
      "since": "2026-07-03T10:34:14.509Z",
      "distanceKm": 0.5,
      "altitudeKm": 427.2,
      "inclinationDeg": 51.631,
      "l1": "1 67796U 26031A   26197.34703582  .00003717  00000+0  75535-4 0  9990",
      "l2": "2 67796  51.6310 155.7849 0006715 302.2300  57.8037 15.49022910575427"
    },
    "68319": {
      "name": "PROGRESS-MS 33",
      "kind": "cargo",
      "family": "progress",
      "phase": "docked",
      "stationKey": "iss",
      "since": "2026-07-10T20:18:26.588Z",
      "distanceKm": 0,
      "altitudeKm": 427.2,
      "inclinationDeg": 51.631,
      "l1": "1 68319U 26058A   26197.34703595  .00003465  00000+0  70975-4 0  9998",
      "l2": "2 68319  51.6312 155.7848 0006753 302.1556  57.8777 15.49022210575462"
    },
    "68689": {
      "name": "CYGNUS NG-24",
      "kind": "cargo",
      "family": "cygnus",
      "phase": "docked",
      "stationKey": "iss",
      "since": "2026-07-10T20:18:26.588Z",
      "distanceKm": 0.5,
      "altitudeKm": 427.2,
      "inclinationDeg": 51.631,
      "l1": "1 68689U 26079A   26197.34703582  .00003717  00000+0  75535-4 0  9994",
      "l2": "2 68689  51.6310 155.7849 0006715 302.2300  57.8037 15.49022910575542"
    },
    "68837": {
      "name": "PROGRESS-MS 34",
      "kind": "cargo",
      "family": "progress",
      "phase": "docked",
      "stationKey": "iss",
      "since": "2026-07-10T20:18:26.588Z",
      "distanceKm": 0.5,
      "altitudeKm": 427.2,
      "inclinationDeg": 51.631,
      "l1": "1 68837U 26093A   26197.34703582  .00003717  00000+0  75535-4 0  9995",
      "l2": "2 68837  51.6310 155.7849 0006715 302.2300  57.8037 15.49022910575581"
    },
    "69049": {
      "name": "TIANZHOU-10",
      "kind": "cargo",
      "family": "tianzhou",
      "phase": "docked",
      "stationKey": "css",
      "since": "2026-07-10T20:18:26.588Z",
      "distanceKm": 0,
      "altitudeKm": 402.4,
      "inclinationDeg": 41.47,
      "l1": "1 69049U 26102A   26197.56097431  .00001173  00000+0  19394-4 0  9990",
      "l2": "2 69049  41.4698 143.5547 0002175 301.3971  58.6654 15.58128282297307"
    },
    "69180": {
      "name": "SHENZHOU-23 (SZ-23)",
      "kind": "crew",
      "family": "shenzhou",
      "phase": "docked",
      "stationKey": "css",
      "since": "2026-07-03T10:34:14.509Z",
      "distanceKm": 0,
      "altitudeKm": 402.4,
      "inclinationDeg": 41.47,
      "l1": "1 69180U 26113A   26197.56097431  .00001173  00000+0  19394-4 0  9998",
      "l2": "2 69180  41.4698 143.5547 0002175 301.3971  58.6654 15.58128282296874"
    }
  },
  "events": [
    {
      "id": "68319",
      "name": "PROGRESS-MS 33",
      "kind": "cargo",
      "family": "progress",
      "stationKey": "iss",
      "event": "launched",
      "at": "2026-07-10T20:18:26.588Z"
    },
    {
      "id": "68689",
      "name": "CYGNUS NG-24",
      "kind": "cargo",
      "family": "cygnus",
      "stationKey": "iss",
      "event": "launched",
      "at": "2026-07-10T20:18:26.588Z"
    },
    {
      "id": "68837",
      "name": "PROGRESS-MS 34",
      "kind": "cargo",
      "family": "progress",
      "stationKey": "iss",
      "event": "launched",
      "at": "2026-07-10T20:18:26.588Z"
    },
    {
      "id": "69049",
      "name": "TIANZHOU-10",
      "kind": "cargo",
      "family": "tianzhou",
      "stationKey": "css",
      "event": "launched",
      "at": "2026-07-10T20:18:26.588Z"
    }
  ]
}
